{"type": "FeatureCollection", "features": [ {"type": "Feature", "properties": {"norad_id": 28649, "name": "IRS-P5 (CARTOSAT-1)", "group": "resource", "lat": 29.55608879954937, "lon": -149.34687734874436, "alt_km": 595.083148718727, "timestamp": "2025-12-26T12:57:38.923428+00:00", "meta": {"OBJECT_NAME": "IRS-P5 (CARTOSAT-1)", "OBJECT_ID": "2005-017A", "EPOCH": "2025-12-26T01:00:39.646656", "MEAN_MOTION": 14.90447527, "ECCENTRICITY": 4.71e-05, "INCLINATION": 97.5483, "RA_OF_ASC_NODE": 25.865, "ARG_OF_PERICENTER": 68.6931, "MEAN_ANOMALY": 291.4338, "EPHEMERIS_TYPE": 0, "CLASSIFICATION_TYPE": "U", "NORAD_CAT_ID": 28649, "ELEMENT_SET_NO": 999, "REV_AT_EPOCH": 11802, "BSTAR": 0.00016417442, "MEAN_MOTION_DOT": 1.548e-05, "MEAN_MOTION_DDOT": 0}, "tle": {"line1": "1 28649U 05017A   25360.04212554  .00001548  00000+0  16417-3 0  9990", "line2": "2 28649  97.5483  25.8650 0000471  68.6931 291.4338 14.90447527118023"}}, "geometry": {"type": "Point", "coordinates": [-149.34687734874436, 29.55608879954937]}}, {"type": "Feature", "properties": {"norad_id": 28893, "name": "SINAH 1", "group": "resource", "lat": -81.56471040995261, "lon": -152.4308904674705, "alt_km": 698.7707951328557, "timestamp": "2025-12-26T12:57:38.923439+00:00", "meta": {"OBJECT_NAME": "SINAH 1", "OBJECT_ID": "2005-043D", "EPOCH": "2025-12-26T06:48:11.715552", "MEAN_MOTION": 14.63976508, "ECCENTRICITY": 0.00157323, "INCLINATION": 98.261, "RA_OF_ASC_NODE": 128.8776, "ARG_OF_PERICENTER": 97.5368, "MEAN_ANOMALY": 262.7622, "EPHEMERIS_TYPE": 0, "CLASSIFICATION_TYPE": "U", "NORAD_CAT_ID": 28893, "ELEMENT_SET_NO": 999, "REV_AT_EPOCH": 7522, "BSTAR": 0.00010369915, "MEAN_MOTION_DOT": 4.95e-06, "MEAN_MOTION_DDOT": 0}, "tle": {"line1": "1 28893U 05043D   25360.28346893  .00000495  00000+0  10370-3 0  9992", "line2": "2 28893  98.2610 128.8776 0015732  97.5368 262.7622 14.63976508 75225"}}, "geometry": {"type": "Point", "coordinates": [-152.4308904674705, -81.56471040995261]}}, {"type": "Feature", "properties": {"norad_id": 29079, "name": "EROS B", "group": "resource", "lat": 16.607303052692167, "lon": -59.97967967607136, "alt_km": 353.96989810434115, "timestamp": "2025-12-26T12:57:38.923449+00:00", "meta": {"OBJECT_NAME": "EROS B", "OBJECT_ID": "2006-014A", "EPOCH": "2025-12-26T06:09:41.533344", "MEAN_MOTION": 15.72806806, "ECCENTRICITY": 0.00046483, "INCLINATION": 97.3451, "RA_OF_ASC_NODE": 117.5167, "ARG_OF_PERICENTER": 312.0474, "MEAN_ANOMALY": 48.0394, "EPHEMERIS_TYPE": 0, "CLASSIFICATION_TYPE": "U", "NORAD_CAT_ID": 29079, "ELEMENT_SET_NO": 999, "REV_AT_EPOCH": 9292, "BSTAR": 0.0014985603, "MEAN_MOTION_DOT": 0.00206803, "MEAN_MOTION_DDOT": 0}, "tle": {"line1": "1 29079U 06014A   25360.25673071  .00206803  00000+0  14986-2 0  9993", "line2": "2 29079  97.3451 117.5167 0004648 312.0474  48.0394 15.72806806 92922"}}, "geometry": {"type": "Point", "coordinates": [-59.97967967607136, 16.607303052692167]}}, {"type": "Feature", "properties": {"norad_id": 29228, "name": "RESURS-DK 1", "group": "resource", "lat": 69.71978574130613, "lon": 164.59129192967342, "alt_km": 526.2745919721974, "timestamp": "2025-12-26T12:57:38.923460+00:00", "meta": {"OBJECT_NAME": "RESURS-DK 1", "OBJECT_ID": "2006-021A", "EPOCH": "2025-12-26T06:12:04.097664", "MEAN_MOTION": 15.12235716, "ECCENTRICITY": 0.00069407, "INCLINATION": 69.9336, "RA_OF_ASC_NODE": 66.8994, "ARG_OF_PERICENTER": 246.5689, "MEAN_ANOMALY": 113.4747, "EPHEMERIS_TYPE": 0, "CLASSIFICATION_TYPE": "U", "NORAD_CAT_ID": 29228, "ELEMENT_SET_NO": 999, "REV_AT_EPOCH": 7642, "BSTAR": 0.0001786883, "MEAN_MOTION_DOT": 2.99e-05, "MEAN_MOTION_DDOT": 0}, "tle": {"line1": "1 29228U 06021A   25360.25838076  .00002990  00000+0  17869-3 0  9990", "line2": "2 29228  69.9336  66.8994 0006940 246.5689 113.4747 15.12235716 76421"}}, "geometry": {"type": "Point", "coordinates": [164.59129192967342, 69.71978574130613]}}, {"type": "Feature", "properties": {"norad_id": 29268, "name": "ARIRANG-2 (KOMPSAT-2)", "group": "resource", "lat": -22.695276601506848, "lon": 5.042629446310087, "alt_km": 679.2826574921155, "timestamp": "2025-12-26T12:57:38.923471+00:00", "meta": {"OBJECT_NAME": "ARIRANG-2 (KOMPSAT-2)", "OBJECT_ID": "2006-031A", "EPOCH": "2025-12-26T07:28:21.552384", "MEAN_MOTION": 14.64504963, "ECCENTRICITY": 0.00131205, "INCLINATION": 97.8259, "RA_OF_ASC_NODE": 188.1226, "ARG_OF_PERICENTER": 262.3169, "MEAN_ANOMALY": 175.7272, "EPHEMERIS_TYPE": 0, "CLASSIFICATION_TYPE": "U", "NORAD_CAT_ID": 29268, "ELEMENT_SET_NO": 999, "REV_AT_EPOCH": 3617, "BSTAR": 6.4152597e-05, "MEAN_MOTION_DOT": 2.95e-06, "MEAN_MOTION_DDOT": 0}, "tle": {"line1": "1 29268U 06031A   25360.31136056  .00000295  00000+0  64153-4 0  9996", "line2": "2 29268  97.8259 188.1226 0013120 262.3169 175.7272 14.64504963 36173"}}, "geometry": {"type": "Point", "coordinates": [5.042629446310087, -22.695276601506848]}}, {"type": "Feature", "properties": {"norad_id": 29709, "name": "LAPAN-TUBSAT", "group": "resource", "lat": 69.51729893353313, "lon": -166.5282644091539, "alt_km": 602.439937785166, "timestamp": "2025-12-26T12:57:38.923482+00:00", "meta": {"OBJECT_NAME": "LAPAN-TUBSAT", "OBJECT_ID": "2007-001A", "EPOCH": "2025-12-26T06:00:29.422656", "MEAN_MOTION": 14.8568972, "ECCENTRICITY": 0.00131181, "INCLINATION": 98.1267, "RA_OF_ASC_NODE": 350.6851, "ARG_OF_PERICENTER": 33.7953, "MEAN_ANOMALY": 326.4095, "EPHEMERIS_TYPE": 0, "CLASSIFICATION_TYPE": "U", "NORAD_CAT_ID": 29709, "ELEMENT_SET_NO": 999, "REV_AT_EPOCH": 2547, "BSTAR": 8.7819197e-05, "MEAN_MOTION_DOT": 7.05e-06, "MEAN_MOTION_DDOT": 0}, "tle": {"line1": "1 29709U 07001A   25360.25034054  .00000705  00000+0  87819-4 0  9992", "line2": "2 29709  98.1267 350.6851 0013118  33.7953 326.4095 14.85689720 25471"}}, "geometry": {"type": "Point", "coordinates": [-166.5282644091539, 69.51729893353313]}}, {"type": "Feature", "properties": {"norad_id": 31113, "name": "HAIYANG-1B", "group": "resource", "lat": 19.958603591768643, "lon": 167.30007474431366, "alt_km": 797.7314953895957, "timestamp": "2025-12-26T12:57:38.923492+00:00", "meta": {"OBJECT_NAME": "HAIYANG-1B", "OBJECT_ID": "2007-010A", "EPOCH": "2025-12-25T22:47:30.795072", "MEAN_MOTION": 14.30969243, "ECCENTRICITY": 0.0013551, "INCLINATION": 98.3331, "RA_OF_ASC_NODE": 343.6829, "ARG_OF_PERICENTER": 359.9847, "MEAN_ANOMALY": 0.1334, "EPHEMERIS_TYPE": 0, "CLASSIFICATION_TYPE": "U", "NORAD_CAT_ID": 31113, "ELEMENT_SET_NO": 999, "REV_AT_EPOCH": 97585, "BSTAR": 6.0325e-05, "MEAN_MOTION_DOT": 1.17e-06, "MEAN_MOTION_DDOT": 0}, "tle": {"line1": "1 31113U 07010A   25359.94966198  .00000117  00000+0  60325-4 0  9991", "line2": "2 31113  98.3331 343.6829 0013551 359.9847   0.1334 14.30969243975859"}}, "geometry": {"type": "Point", "coordinates": [167.30007474431366, 19.958603591768643]}}, {"type": "Feature", "properties": {"norad_id": 31598, "name": "COSMO-SKYMED 1", "group": "resource", "lat": -27.14249946679644, "lon": 1.9567932226227291, "alt_km": 586.0121498045573, "timestamp": "2025-12-26T12:57:38.923503+00:00", "meta": {"OBJECT_NAME": "COSMO-SKYMED 1", "OBJECT_ID": "2007-023A", "EPOCH": "2025-12-26T07:13:14.584800", "MEAN_MOTION": 14.95864, "ECCENTRICITY": 0.00011607, "INCLINATION": 97.8839, "RA_OF_ASC_NODE": 185.7898, "ARG_OF_PERICENTER": 77.5409, "MEAN_ANOMALY": 282.5941, "EPHEMERIS_TYPE": 0, "CLASSIFICATION_TYPE": "U", "NORAD_CAT_ID": 31598, "ELEMENT_SET_NO": 999, "REV_AT_EPOCH": 393, "BSTAR": 0.00029764685, "MEAN_MOTION_DOT": 3.268e-05, "MEAN_MOTION_DDOT": 0}, "tle": {"line1": "1 31598U 07023A   25360.30086325  .00003268  00000+0  29765-3 0  9991", "line2": "2 31598  97.8839 185.7898 0001160  77.5409 282.5941 14.95864000  3931"}}, "geometry": {"type": "Point", "coordinates": [1.9567932226227291, -27.14249946679644]}}, {"type": "Feature", "properties": {"norad_id": 31698, "name": "TERRASAR-X", "group": "resource", "lat": -58.982593324320405, "lon": 18.279579407615007, "alt_km": 516.461485164522, "timestamp": "2025-12-26T12:57:38.923513+00:00", "meta": {"OBJECT_NAME": "TERRASAR-X", "OBJECT_ID": "2007-026A", "EPOCH": "2025-12-25T13:30:40.378176", "MEAN_MOTION": 15.19155603, "ECCENTRICITY": 0.0001851, "INCLINATION": 97.4447, "RA_OF_ASC_NODE": 4.756, "ARG_OF_PERICENTER": 79.9289, "MEAN_ANOMALY": 280.2154, "EPHEMERIS_TYPE": 0, "CLASSIFICATION_TYPE": "U", "NORAD_CAT_ID": 31698, "ELEMENT_SET_NO": 999, "REV_AT_EPOCH": 2686, "BSTAR": 7.0738e-05, "MEAN_MOTION_DOT": 1.419e-05, "MEAN_MOTION_DDOT": 0}, "tle": {"line1": "1 31698U 07026A   25359.56296734  .00001419  00000+0  70738-4 0  9991", "line2": "2 31698  97.4447   4.7560 0001851  79.9289 280.2154 15.19155603 26865"}}, "geometry": {"type": "Point", "coordinates": [18.279579407615007, -58.982593324320405]}}, {"type": "Feature", "properties": {"norad_id": 32060, "name": "WORLDVIEW-1 (WV-1)", "group": "resource", "lat": -18.885509167091538, "lon": -64.72427262953295, "alt_km": 500.869256979021, "timestamp": "2025-12-26T12:57:38.923524+00:00", "meta": {"OBJECT_NAME": "WORLDVIEW-1 (WV-1)", "OBJECT_ID": "2007-041A", "EPOCH": "2025-12-26T07:21:46.694880", "MEAN_MOTION": 15.23977032, "ECCENTRICITY": 0.00030663, "INCLINATION": 97.3819, "RA_OF_ASC_NODE": 117.5881, "ARG_OF_PERICENTER": 350.484, "MEAN_ANOMALY": 9.6339, "EPHEMERIS_TYPE": 0, "CLASSIFICATION_TYPE": "U", "NORAD_CAT_ID": 32060, "ELEMENT_SET_NO": 999, "REV_AT_EPOCH": 1654, "BSTAR": 0.0003338713, "MEAN_MOTION_DOT": 8.014e-05, "MEAN_MOTION_DDOT": 0}, "tle": {"line1": "1 32060U 07041A   25360.30679045  .00008014  00000+0  33387-3 0  9992", "line2": "2 32060  97.3819 117.5881 0003066 350.4840   9.6339 15.23977032 16545"}}, "geometry": {"type": "Point", "coordinates": [-64.72427262953295, -18.885509167091538]}}]}